[{"OBJECT_NAME":"STARLINK-4517","OBJECT_ID":"2022-097C","EPOCH":"2026-03-09T10:54:53.801568","MEAN_MOTION":15.08837888,"ECCENTRICITY":0.0001338,"INCLINATION":53.2169,"RA_OF_ASC_NODE":125.176,"ARG_OF_PERICENTER":95.9433,"MEAN_ANOMALY":264.1712,"EPHEMERIS_TYPE":0,"CLASSIFICATION_TYPE":"U","NORAD_CAT_ID":53390,"ELEMENT_SET_NO":999,"REV_AT_EPOCH":19878,"BSTAR":-8.993758e-6,"MEAN_MOTION_DOT":-4.31e-6,"MEAN_MOTION_DDOT":0},{"OBJECT_NAME":"YUNYAO-1 43","OBJECT_ID":"2025-059A","EPOCH":"2026-03-09T23:54:24.516576","MEAN_MOTION":15.10329109,"ECCENTRICITY":0.00157026,"INCLINATION":97.608,"RA_OF_ASC_NODE":250.9377,"ARG_OF_PERICENTER":132.1084,"MEAN_ANOMALY":228.1483,"EPHEMERIS_TYPE":0,"CLASSIFICATION_TYPE":"U","NORAD_CAT_ID":63344,"ELEMENT_SET_NO":999,"REV_AT_EPOCH":5332,"BSTAR":0.00032498885,"MEAN_MOTION_DOT":5.279e-5,"MEAN_MOTION_DDOT":0}]
